{"type": "FeatureCollection", "features": [ {"type": "Feature", "properties": {"norad_id": 66865, "name": "STARLINK-36117", "group": "last-30-days", "lat": -32.1636674345741, "lon": -59.40262760222261, "alt_km": 346.5644968413544, "timestamp": "2025-12-19T22:41:51.097735+00:00", "meta": {"OBJECT_NAME": "STARLINK-36117", "OBJECT_ID": "2025-281T", "EPOCH": "2025-12-19T18:00:00.998784", "MEAN_MOTION": 15.75026065, "ECCENTRICITY": 0.0001596, "INCLINATION": 43.0008, "RA_OF_ASC_NODE": 79.344, "ARG_OF_PERICENTER": 273.606, "MEAN_ANOMALY": 286.5806, "EPHEMERIS_TYPE": 0, "CLASSIFICATION_TYPE": "U", "NORAD_CAT_ID": 66865, "ELEMENT_SET_NO": 999, "REV_AT_EPOCH": 252, "BSTAR": 0.0002596, "MEAN_MOTION_DOT": 0.00039563, "MEAN_MOTION_DDOT": 0}, "tle": {"line1": "1 66865U 25281T   25353.75001156  .00039563  00000+0  25960-3 0  9992", "line2": "2 66865  43.0008  79.3440 0001596 273.6060 286.5806 15.75026065  2521"}}, "geometry": {"type": "Point", "coordinates": [-59.40262760222261, -32.1636674345741]}}, {"type": "Feature", "properties": {"norad_id": 66866, "name": "STARLINK-36126", "group": "last-30-days", "lat": -33.110201532262785, "lon": -57.43502963146753, "alt_km": 346.59441850095027, "timestamp": "2025-12-19T22:41:51.097746+00:00", "meta": {"OBJECT_NAME": "STARLINK-36126", "OBJECT_ID": "2025-281U", "EPOCH": "2025-12-19T18:00:00.998784", "MEAN_MOTION": 15.75003263, "ECCENTRICITY": 0.0001627, "INCLINATION": 43.0007, "RA_OF_ASC_NODE": 79.3389, "ARG_OF_PERICENTER": 272.7561, "MEAN_ANOMALY": 289.3552, "EPHEMERIS_TYPE": 0, "CLASSIFICATION_TYPE": "U", "NORAD_CAT_ID": 66866, "ELEMENT_SET_NO": 999, "REV_AT_EPOCH": 255, "BSTAR": 0.00050471, "MEAN_MOTION_DOT": 0.00077645, "MEAN_MOTION_DDOT": 0}, "tle": {"line1": "1 66866U 25281U   25353.75001156  .00077645  00000+0  50471-3 0  9991", "line2": "2 66866  43.0007  79.3389 0001627 272.7561 289.3552 15.75003263  2551"}}, "geometry": {"type": "Point", "coordinates": [-57.43502963146753, -33.110201532262785]}}, {"type": "Feature", "properties": {"norad_id": 66867, "name": "STARLINK-36101", "group": "last-30-days", "lat": -34.02370180577477, "lon": -55.427875345726044, "alt_km": 346.76974420406987, "timestamp": "2025-12-19T22:41:51.097756+00:00", "meta": {"OBJECT_NAME": "STARLINK-36101", "OBJECT_ID": "2025-281V", "EPOCH": "2025-12-19T18:00:00.998784", "MEAN_MOTION": 15.75026063, "ECCENTRICITY": 0.0001633, "INCLINATION": 43.0007, "RA_OF_ASC_NODE": 79.3343, "ARG_OF_PERICENTER": 286.4055, "MEAN_ANOMALY": 277.6076, "EPHEMERIS_TYPE": 0, "CLASSIFICATION_TYPE": "U", "NORAD_CAT_ID": 66867, "ELEMENT_SET_NO": 999, "REV_AT_EPOCH": 236, "BSTAR": 0.0003236, "MEAN_MOTION_DOT": 0.00049494, "MEAN_MOTION_DDOT": 0}, "tle": {"line1": "1 66867U 25281V   25353.75001156  .00049494  00000+0  32360-3 0  9990", "line2": "2 66867  43.0007  79.3343 0001633 286.4055 277.6076 15.75026063  2362"}}, "geometry": {"type": "Point", "coordinates": [-55.427875345726044, -34.02370180577477]}}, {"type": "Feature", "properties": {"norad_id": 66868, "name": "STARLINK-36108", "group": "last-30-days", "lat": -34.90771798063106, "lon": -53.36930601298592, "alt_km": 346.61929034542027, "timestamp": "2025-12-19T22:41:51.097784+00:00", "meta": {"OBJECT_NAME": "STARLINK-36108", "OBJECT_ID": "2025-281W", "EPOCH": "2025-12-19T18:00:00.998784", "MEAN_MOTION": 15.75029428, "ECCENTRICITY": 0.000163, "INCLINATION": 43.0009, "RA_OF_ASC_NODE": 79.329, "ARG_OF_PERICENTER": 273.6204, "MEAN_ANOMALY": 292.308, "EPHEMERIS_TYPE": 0, "CLASSIFICATION_TYPE": "U", "NORAD_CAT_ID": 66868, "ELEMENT_SET_NO": 999, "REV_AT_EPOCH": 236, "BSTAR": 0.00027254, "MEAN_MOTION_DOT": 0.00041576, "MEAN_MOTION_DDOT": 0}, "tle": {"line1": "1 66868U 25281W   25353.75001156  .00041576  00000+0  27254-3 0  9990", "line2": "2 66868  43.0009  79.3290 0001630 273.6204 292.3080 15.75029428  2364"}}, "geometry": {"type": "Point", "coordinates": [-53.36930601298592, -34.90771798063106]}}, {"type": "Feature", "properties": {"norad_id": 66869, "name": "STARLINK-36092", "group": "last-30-days", "lat": -35.75669592391382, "lon": -51.26692149627511, "alt_km": 346.7670787614079, "timestamp": "2025-12-19T22:41:51.097795+00:00", "meta": {"OBJECT_NAME": "STARLINK-36092", "OBJECT_ID": "2025-281X", "EPOCH": "2025-12-19T18:00:00.998784", "MEAN_MOTION": 15.75004432, "ECCENTRICITY": 0.0001563, "INCLINATION": 43.0019, "RA_OF_ASC_NODE": 79.3239, "ARG_OF_PERICENTER": 278.6718, "MEAN_ANOMALY": 289.1893, "EPHEMERIS_TYPE": 0, "CLASSIFICATION_TYPE": "U", "NORAD_CAT_ID": 66869, "ELEMENT_SET_NO": 999, "REV_AT_EPOCH": 255, "BSTAR": 0.00052025, "MEAN_MOTION_DOT": 0.00080077, "MEAN_MOTION_DDOT": 0}, "tle": {"line1": "1 66869U 25281X   25353.75001156  .00080077  00000+0  52025-3 0  9994", "line2": "2 66869  43.0019  79.3239 0001563 278.6718 289.1893 15.75004432  2554"}}, "geometry": {"type": "Point", "coordinates": [-51.26692149627511, -35.75669592391382]}}, {"type": "Feature", "properties": {"norad_id": 66870, "name": "STARLINK-36114", "group": "last-30-days", "lat": -36.56509819025035, "lon": -49.12281422456153, "alt_km": 346.77780725518187, "timestamp": "2025-12-19T22:41:51.097805+00:00", "meta": {"OBJECT_NAME": "STARLINK-36114", "OBJECT_ID": "2025-281Y", "EPOCH": "2025-12-19T18:00:00.998784", "MEAN_MOTION": 15.75022551, "ECCENTRICITY": 0.0001615, "INCLINATION": 43.0008, "RA_OF_ASC_NODE": 79.3191, "ARG_OF_PERICENTER": 281.866, "MEAN_ANOMALY": 287.9037, "EPHEMERIS_TYPE": 0, "CLASSIFICATION_TYPE": "U", "NORAD_CAT_ID": 66870, "ELEMENT_SET_NO": 999, "REV_AT_EPOCH": 242, "BSTAR": 0.00032509, "MEAN_MOTION_DOT": 0.00049718, "MEAN_MOTION_DDOT": 0}, "tle": {"line1": "1 66870U 25281Y   25353.75001156  .00049718  00000+0  32509-3 0  9998", "line2": "2 66870  43.0008  79.3191 0001615 281.8660 287.9037 15.75022551  2425"}}, "geometry": {"type": "Point", "coordinates": [-49.12281422456153, -36.56509819025035]}}, {"type": "Feature", "properties": {"norad_id": 66871, "name": "STARLINK-36095", "group": "last-30-days", "lat": -37.33738294007045, "lon": -46.931643929967265, "alt_km": 346.77975912290276, "timestamp": "2025-12-19T22:41:51.097815+00:00", "meta": {"OBJECT_NAME": "STARLINK-36095", "OBJECT_ID": "2025-281Z", "EPOCH": "2025-12-19T18:00:00.998784", "MEAN_MOTION": 15.75004161, "ECCENTRICITY": 0.0001596, "INCLINATION": 43.002, "RA_OF_ASC_NODE": 79.3138, "ARG_OF_PERICENTER": 277.1272, "MEAN_ANOMALY": 294.5714, "EPHEMERIS_TYPE": 0, "CLASSIFICATION_TYPE": "U", "NORAD_CAT_ID": 66871, "ELEMENT_SET_NO": 999, "REV_AT_EPOCH": 255, "BSTAR": 0.00044998, "MEAN_MOTION_DOT": 0.00069105, "MEAN_MOTION_DDOT": 0}, "tle": {"line1": "1 66871U 25281Z   25353.75001156  .00069105  00000+0  44998-3 0  9996", "line2": "2 66871  43.0020  79.3138 0001596 277.1272 294.5714 15.75004161  2553"}}, "geometry": {"type": "Point", "coordinates": [-46.931643929967265, -37.33738294007045]}}, {"type": "Feature", "properties": {"norad_id": 66872, "name": "STARLINK-36082", "group": "last-30-days", "lat": -38.06306112605384, "lon": -44.704881323939055, "alt_km": 346.81239489773725, "timestamp": "2025-12-19T22:41:51.097825+00:00", "meta": {"OBJECT_NAME": "STARLINK-36082", "OBJECT_ID": "2025-281AA", "EPOCH": "2025-12-19T18:00:00.998784", "MEAN_MOTION": 15.75015127, "ECCENTRICITY": 0.0001648, "INCLINATION": 43.0009, "RA_OF_ASC_NODE": 79.3093, "ARG_OF_PERICENTER": 283.61, "MEAN_ANOMALY": 289.9942, "EPHEMERIS_TYPE": 0, "CLASSIFICATION_TYPE": "U", "NORAD_CAT_ID": 66872, "ELEMENT_SET_NO": 999, "REV_AT_EPOCH": 242, "BSTAR": 0.00042818, "MEAN_MOTION_DOT": 0.00065739, "MEAN_MOTION_DDOT": 0}, "tle": {"line1": "1 66872U 25281AA  25353.75001156  .00065739  00000+0  42818-3 0  9995", "line2": "2 66872  43.0009  79.3093 0001648 283.6100 289.9942 15.75015127  2422"}}, "geometry": {"type": "Point", "coordinates": [-44.704881323939055, -38.06306112605384]}}, {"type": "Feature", "properties": {"norad_id": 66873, "name": "STARLINK-36128", "group": "last-30-days", "lat": -39.984613185793876, "lon": -37.745381688809154, "alt_km": 346.7179341712281, "timestamp": "2025-12-19T22:41:51.097837+00:00", "meta": {"OBJECT_NAME": "STARLINK-36128", "OBJECT_ID": "2025-281AB", "EPOCH": "2025-12-19T18:00:00.998784", "MEAN_MOTION": 15.7502924, "ECCENTRICITY": 0.0001688, "INCLINATION": 43.002, "RA_OF_ASC_NODE": 79.2937, "ARG_OF_PERICENTER": 274.2766, "MEAN_ANOMALY": 305.0749, "EPHEMERIS_TYPE": 0, "CLASSIFICATION_TYPE": "U", "NORAD_CAT_ID": 66873, "ELEMENT_SET_NO": 999, "REV_AT_EPOCH": 255, "BSTAR": 0.00018629, "MEAN_MOTION_DOT": 0.00028221, "MEAN_MOTION_DDOT": 0}, "tle": {"line1": "1 66873U 25281AB  25353.75001156  .00028221  00000+0  18629-3 0  9994", "line2": "2 66873  43.0020  79.2937 0001688 274.2766 305.0749 15.75029240  2550"}}, "geometry": {"type": "Point", "coordinates": [-37.745381688809154, -39.984613185793876]}}, {"type": "Feature", "properties": {"norad_id": 66874, "name": "STARLINK-36129", "group": "last-30-days", "lat": -38.74988656619517, "lon": -42.42461450014773, "alt_km": 346.7812175917352, "timestamp": "2025-12-19T22:41:51.097847+00:00", "meta": {"OBJECT_NAME": "STARLINK-36129", "OBJECT_ID": "2025-281AC", "EPOCH": "2025-12-19T18:00:00.998784", "MEAN_MOTION": 15.75006472, "ECCENTRICITY": 0.0001635, "INCLINATION": 43.0009, "RA_OF_ASC_NODE": 79.3041, "ARG_OF_PERICENTER": 278.3403, "MEAN_ANOMALY": 297.1872, "EPHEMERIS_TYPE": 0, "CLASSIFICATION_TYPE": "U", "NORAD_CAT_ID": 66874, "ELEMENT_SET_NO": 999, "REV_AT_EPOCH": 255, "BSTAR": 0.00050755, "MEAN_MOTION_DOT": 0.000781, "MEAN_MOTION_DDOT": 0}, "tle": {"line1": "1 66874U 25281AC  25353.75001156  .00078100  00000+0  50755-3 0  9992", "line2": "2 66874  43.0009  79.3041 0001635 278.3403 297.1872 15.75006472  2550"}}, "geometry": {"type": "Point", "coordinates": [-42.42461450014773, -38.74988656619517]}}]}